NORAD_CAT_ID,OBJECT_NAME,OBJECT_TYPE,EPOCH,MEAN_MOTION,ECCENTRICITY,INCLINATION,RA_OF_ASC_NODE,ARG_OF_PERICENTER,MEAN_ANOMALY,BSTAR,MEAN_MOTION_DOT,MEAN_MOTION_DDOT,TLE_LINE0,TLE_LINE1,TLE_LINE2,SEMIMAJOR_AXIS,PERIOD,APOGEE,PERIGEE,DECAYED
51968.0,STARLINK-3681,PAYLOAD,2022-05-01 22:00:01,15.61076721,0.0001511,53.2172,236.099,44.2338,221.5582,-0.0091384,-0.00718308,0.0,0 STARLINK-3681,1 51968U 22025N   22121.91668981 -.00718308  00000-0 -91384-2 0  9992,2 51968  53.2172 236.0990 0001511  44.2338 221.5582 15.61076721  3703,6762.683000000001,92.244,385.57,383.526,0.0
51968.0,STARLINK-3681,PAYLOAD,2022-05-02 14:00:01,15.60056585,0.0001864,53.2174,232.8649,28.801,24.4063,-0.0094937,-0.00717517,0.0,0 STARLINK-3681,1 51968U 22025N   22122.58334491 -.00717517  00000-0 -94937-2 0  9990,2 51968  53.2174 232.8649 0001864  28.8010  24.4063 15.60056585  9778,6765.63,92.304,388.757,386.234,0.0
51968.0,STARLINK-3681,PAYLOAD,2022-05-02 22:00:01,15.59545207,0.0001674,53.2173,231.2487,38.2453,87.8491,-0.0096448,-0.0071494,0.0,0 STARLINK-3681,1 51968U 22025N   22122.91668981 -.00714940  00000-0 -96448-2 0  9997,2 51968  53.2173 231.2487 0001674  38.2453  87.8491 15.59545207  3702,6767.109,92.335,390.107,387.842,0.0
51968.0,STARLINK-3681,PAYLOAD,2022-05-03 14:00:01,15.58525047,0.0002149,53.2176,228.0222,25.0052,244.8279,-0.010026,-0.00714902,0.0,0 STARLINK-3681,1 51968U 22025N   22123.58334491 -.00714902  00000-0 -10026-1 0  9992,2 51968  53.2176 228.0222 0002149  25.0052 244.8279 15.58525047  3699,6770.062,92.395,393.382,390.472,0.0
51968.0,STARLINK-3681,PAYLOAD,2022-05-03 20:00:01,15.58144234,0.000159,53.2171,226.813,39.8337,193.2931,-0.010204,-0.00716846,0.0,0 STARLINK-3681,1 51968U 22025N   22123.83334491 -.00716846  00000-0 -10204-1 0  9997,2 51968  53.2171 226.8130 0001590  39.8337 193.2931 15.58144234  9970,6771.165,92.418,394.107,391.953,0.0
51968.0,STARLINK-3681,PAYLOAD,2022-05-03 22:00:00,15.58016128,0.0001492,53.2174,226.4097,38.6667,302.1491,-0.010244,-0.00716206,0.0,0 STARLINK-3681,1 51968U 22025N   22123.91667824 -.00716206  00000-0 -10244-1 0  9999,2 51968  53.2174 226.4097 0001492  38.6667 302.1491 15.58016128  3702,6771.536,92.425,394.412,392.391,0.0
51968.0,STARLINK-3681,PAYLOAD,2022-05-04 14:00:01,15.56995841,0.0001933,53.2173,223.1907,31.4562,89.4863,-0.01063,-0.00715299,0.0,0 STARLINK-3681,1 51968U 22025N   22124.58334491 -.00715299  00000-0 -10630-1 0  9994,2 51968  53.2173 223.1907 0001933  31.4562  89.4863 15.56995841  3704,6774.494000000002,92.486,397.669,395.05,0.0
51968.0,STARLINK-3681,PAYLOAD,2022-05-04 20:00:01,15.56612882,0.0001515,53.2171,221.9842,38.8611,44.0623,-0.010762,-0.00713887,0.0,0 STARLINK-3681,1 51968U 22025N   22124.83335648 -.00713887  00000-0 -10762-1 0  9994,2 51968  53.2171 221.9842 0001515  38.8611  44.0623 15.56612882 10124,6775.605,92.509,398.497,396.444,0.0
51968.0,STARLINK-3681,PAYLOAD,2022-05-04 22:00:01,15.56486001,0.0001588,53.2173,221.5816,45.7271,144.4253,-0.010842,-0.00715639,0.0,0 STARLINK-3681,1 51968U 22025N   22124.91668981 -.00715639  00000-0 -10842-1 0  9998,2 51968  53.2173 221.5816 0001588  45.7271 144.4253 15.56486001  3704,6775.973000000001,92.516,398.914,396.762,0.0
51968.0,STARLINK-3681,PAYLOAD,2022-05-05 14:00:01,15.55466633,0.0001867,53.2176,218.3701,29.9521,296.5851,-0.011276,-0.00716506,0.0,0 STARLINK-3681,1 51968U 22025N   22125.58334491 -.00716506  00000-0 -11276-1 0  9994,2 51968  53.2176 218.3701 0001867  29.9521 296.5851 15.55466633  3718,6778.934,92.577,402.064,399.533,0.0
51968.0,STARLINK-3681,PAYLOAD,2022-05-05 20:00:01,15.55084655,0.0001447,53.2173,217.166,46.8024,240.3367,-0.011446,-0.0071695,0.0,0 STARLINK-3681,1 51968U 22025N   22125.83335648 -.00716950  00000-0 -11446-1 0  9999,2 51968  53.2173 217.1660 0001447  46.8024 240.3367 15.55084655 10285,6780.044,92.599,402.89,400.927,0.0
51968.0,STARLINK-3681,PAYLOAD,2022-05-05 22:00:00,15.54955737,0.0001403,53.2175,216.7647,42.5672,351.277,-0.011458,-0.007145,0.0,0 STARLINK-3681,1 51968U 22025N   22125.91667824 -.00714500  00000-0 -11458-1 0  9994,2 51968  53.2175 216.7647 0001403  42.5672 351.2770 15.54955737  3695,6780.418000000002,92.607,403.235,401.332,0.0
51968.0,STARLINK-3681,PAYLOAD,2022-05-06 14:00:01,15.539350199999998,0.0002073,53.2176,213.5607,31.2381,135.3793,-0.011864,-0.007128,0.0,0 STARLINK-3681,1 51968U 22025N   22126.58334491 -.00712800  00000-0 -11864-1 0  9991,2 51968  53.2176 213.5607 0002073  31.2381 135.3793 15.53935020  3725,6783.387,92.668,406.658,403.846,0.0
51968.0,STARLINK-3681,PAYLOAD,2022-05-07 06:00:02,15.5291525,0.0001726,53.2177,210.3584,35.7836,261.222,-0.012302,-0.00712058,0.0,0 STARLINK-3681,1 51968U 22025N   22127.25002315 -.00712058  00000-0 -12302-1 0  9996,2 51968  53.2177 210.3584 0001726  35.7836 261.2220 15.52915250 10503,6786.357,92.729,409.393,407.05,0.0
51968.0,STARLINK-3681,PAYLOAD,2022-05-07 14:00:01,15.52406727,0.0001884,53.2175,208.7623,28.7694,332.4121,-0.012603,-0.00715807,0.0,0 STARLINK-3681,1 51968U 22025N   22127.58334491 -.00715807  00000-0 -12603-1 0  9994,2 51968  53.2175 208.7623 0001884  28.7694 332.4121 15.52406727  3704,6787.8380000000025,92.759,410.982,408.425,0.0
51968.0,STARLINK-3681,PAYLOAD,2022-05-07 22:00:00,15.51895418,0.0001661,53.2174,207.164,33.2136,31.5985,-0.012787,-0.00713133,0.0,0 STARLINK-3681,1 51968U 22025N   22127.91667824 -.00713133  00000-0 -12787-1 0  9993,2 51968  53.2174 207.1640 0001661  33.2136  31.5985 15.51895418  3703,6789.329000000002,92.79,412.322,410.067,0.0
51968.0,STARLINK-3681,PAYLOAD,2022-05-08 04:00:00,15.51511301,0.0001584,53.2173,205.966,35.9332,346.1999,-0.012918,-0.00710725,0.0,0 STARLINK-3681,1 51968U 22025N   22128.16667824 -.00710725  00000-0 -12918-1 0  9991,2 51968  53.2173 205.9660 0001584  35.9332 346.1999 15.51511301 10648,6790.45,92.813,413.39,411.239,0.0
51968.0,STARLINK-3681,PAYLOAD,2022-05-08 14:00:01,15.5087407,0.0002065,53.2175,203.9748,31.6319,158.6002,-0.01321,-0.0071951,0.0,0 STARLINK-3681,1 51968U 22025N   22128.58334491 -.00719510  00000-0 -13210-1 0  9995,2 51968  53.2175 203.9748 0002065  31.6319 158.6002 15.50874070  3690,6792.31,92.851,415.577,412.772,0.0
51968.0,STARLINK-3681,PAYLOAD,2022-05-08 22:00:00,15.50291533,0.000171,53.2175,202.3793,42.0683,209.9697,-0.0097311,-0.00524839,0.0,0 STARLINK-3681,1 51968U 22025N   22128.91667824 -.00524839  00000-0 -97311-2 0  9994,2 51968  53.2175 202.3793 0001710  42.0683 209.9697 15.50291533  3696,6794.011,92.886,417.038,414.714,0.0
51968.0,STARLINK-3681,PAYLOAD,2022-05-09 04:00:00,15.49897457,0.0001953,53.2174,201.1835,33.7359,174.237,-0.00034951,-0.00020247,0.0,0 STARLINK-3681,1 51968U 22025N   22129.16667824 -.00020247  00000-0 -34951-3 0  9998,2 51968  53.2174 201.1835 0001953  33.7359 174.2370 15.49897457 10803,6795.163000000001,92.909,418.355,415.701,0.0
51968.0,STARLINK-3681,PAYLOAD,2022-05-09 14:00:01,15.49891613,0.0001653,53.2163,199.1877,331.0814,43.1578,0.00086514,0.0004897,0.0,0 STARLINK-3681,1 51968U 22025N   22129.58335648  .00048970  00000-0  86514-3 0  9993,2 51968  53.2163 199.1877 0001653 331.0814  43.1578 15.49891613 10868,6795.18,92.91,418.168,415.922,0.0
51968.0,STARLINK-3681,PAYLOAD,2022-05-09 22:00:00,15.49920778,0.0001539,53.2153,197.5895,327.9022,107.2159,-5.5381e-05,-3.597e-05,0.0,0 STARLINK-3681,1 51968U 22025N   22129.91667824 -.00003597  00000-0 -55381-4 0  9991,2 51968  53.2153 197.5895 0001539 327.9022 107.2159 15.49920778  3692,6795.095,92.908,418.005,415.914,0.0
51968.0,STARLINK-3681,PAYLOAD,2022-05-10 06:00:00,15.49962103,0.0001428,53.2154,195.9964,333.6230000000001,162.4439,-0.001168,-0.00066363,0.0,0 STARLINK-3681,1 51968U 22025N   22130.25001157 -.00066363  00000-0 -11680-2 0  9993,2 51968  53.2154 195.9964 0001428 333.6230 162.4439 15.49962103 10964,6794.974,92.905,417.809,415.869,0.0
51968.0,STARLINK-3681,PAYLOAD,2022-05-10 14:00:01,15.49866057,0.000168,53.2152,194.405,342.2195,214.8388,0.00041754,0.00023301,0.0,0 STARLINK-3681,1 51968U 22025N   22130.58334491  .00023301  00000-0  41754-3 0  9998,2 51968  53.2152 194.4050 0001680 342.2195 214.8388 15.49866057  3696,6795.255,92.911,418.261,415.978,0.0
51968.0,STARLINK-3681,PAYLOAD,2022-05-10 18:00:00,15.49517688,0.0001795,53.2164,193.6159,328.5252,78.9948,0.0098656,0.00596567,0.0,0 STARLINK-3681,1 51968U 22025N   22130.75001157  .00596567  00000-0  98656-2 0  9998,2 51968  53.2164 193.6159 0001795 328.5252  78.9948 15.49517688 11040,6796.273,92.932,419.358,416.918,0.0
51968.0,STARLINK-3681,PAYLOAD,2022-05-11 22:00:00,15.49887585,0.0001535,53.2155,188.031,349.2562,91.5256,-0.00097761,-0.0005555,0.0,0 STARLINK-3681,1 51968U 22025N   22131.91667824 -.00055550  00000-0 -97761-3 0  9997,2 51968  53.2155 188.0310 0001535 349.2562  91.5256 15.49887585 11222,6795.191999999999,92.91,418.1,416.014,0.0
51968.0,STARLINK-3681,PAYLOAD,2022-05-12 14:00:01,15.49929121,0.0001705,53.2166,184.8517,5.0710000000000015,197.4649,-0.0032421,-0.00180571,0.0,0 STARLINK-3681,1 51968U 22025N   22132.58334491 -.00180571  00000-0 -32421-2 0  9995,2 51968  53.2166 184.8517 0001705   5.0710 197.4649 15.49929121  1301,6795.07,92.907,418.094,415.777,0.0
51968.0,STARLINK-3681,PAYLOAD,2022-05-12 22:00:00,15.49661712,0.0001738,53.2175,183.2604,16.1491,247.3338,-0.0026416,-0.00146455,0.0,0 STARLINK-3681,1 51968U 22025N   22132.91667824 -.00146455  00000-0 -26416-2 0  9991,2 51968  53.2175 183.2604 0001738  16.1491 247.3338 15.49661712  1305,6795.852,92.924,418.898,416.536,0.0
51968.0,STARLINK-3681,PAYLOAD,2022-05-13 06:00:00,15.49604329,0.0002144,53.2179,181.6718,22.481,301.5979,-0.0138919999999999,-0.007229,0.0,0 STARLINK-3681,1 51968U 22025N   22133.25001157 -.00722900  00000-0 -13892-1 0  9998,2 51968  53.2179 181.6718 0002144  22.4810 301.5979 15.49604329 11434,6796.02,92.927,419.342,416.42800000000005,0.0
